BEIDOU 3 (C01)          
1 36287U 10001A   21280.56368939 -.00000281  00000-0  00000+0 0  9991
2 36287   1.6675  40.8553 0002428  78.6129 240.3318  1.00271016 42978
BEIDOU 5 (C06)          
1 36828U 10036A   21280.54093926 -.00000114  00000-0  00000-0 0  9995
2 36828  54.1813 178.5595 0023176 180.4366 319.3835  1.00271172 41040
BEIDOU 6 (C04)          
1 37210U 10057A   21280.84853306 -.00000113  00000-0  00000+0 0  9991
2 37210   0.7364  37.3874 0004387 144.2787 300.4612  1.00273494 40103
BEIDOU 7 (C07)          
1 37256U 10068A   21280.42895905 -.00000186  00000-0  00000+0 0  9998
2 37256  50.6664 292.6706 0017986 189.2977 157.6986  1.00273660 39603
BEIDOU 8 (C08)          
1 37384U 11013A   21280.52791492 -.00000170  00000-0  00000-0 0  9992
2 37384  59.9326  56.7773 0019052 180.8927  75.0874  1.00276456 38483
BEIDOU 9 (C09)          
1 37763U 11038A   21280.53399830 -.00000070  00000-0  00000-0 0  9990
2 37763  54.4689 181.0206 0086606 226.7573 255.0439  1.00287049 37469
BEIDOU 10 (C10)         
1 37948U 11073A   21279.95472206 -.00000136  00000-0  00000-0 0  9990
2 37948  50.7707 292.2990 0078952 217.6849 305.5127  1.00267961 36217
BEIDOU 11 (C05)         
1 38091U 12008A   21280.57603468  .00000057  00000-0  00000-0 0  9996
2 38091   1.7916  70.2131 0002998 317.4945 254.8085  1.00273139 35299
BEIDOU 12 (C11)         
1 38250U 12018A   21280.41447903 -.00000077  00000-0  00000-0 0  9990
2 38250  56.7458   1.9188 0023333 245.0801 233.9902  1.86234460 64378
BEIDOU 13 (C12)         
1 38251U 12018B   21280.31437319 -.00000077  00000-0  00000-0 0  9990
2 38251  56.6668   1.2634 0014177 244.1067 212.1814  1.86234172 64371
BEIDOU 15 (C14)         
1 38775U 12050B   21280.68168471  .00000063  00000-0  00000+0 0  9990
2 38775  55.2597 120.1998 0012412 329.1048 210.6823  1.86231357 61759
BEIDOU 16 (C02)         
1 38953U 12059A   21280.91221499 -.00000177  00000-0  00000+0 0  9990
2 38953   1.3638  84.1448 0009269 281.6650  63.4793  1.00272888 32861
BEIDOU 17 (C31)         
1 40549U 15019A   21280.45562493 -.00000142  00000-0  00000-0 0  9997
2 40549  52.3109 315.6946 0038209 189.4862 127.6737  1.00297115 23899
BEIDOU 18 (C57)         
1 40748U 15037A   21280.50403520 -.00000078  00000-0  00000-0 0  9997
2 40748  55.9251   0.2778 0001064  25.8395 107.3869  1.86233531 42203
BEIDOU 19 (C58)         
1 40749U 15037B   21280.22891255 -.00000077  00000-0  00000-0 0  9992
2 40749  55.9284   0.2737 0003305 289.6301 154.7364  1.86232210 42199
BEIDOU 20 (C18)         
1 40938U 15053A   21280.47637319 -.00000116  00000-0  00000-0 0  9990
2 40938  51.8959 278.7768 0047825 196.5274 166.8958  1.00257828 22176
BEIDOU IGSO-6 (C13)     
1 41434U 16021A   21280.52359434 -.00000141  00000-0  00000-0 0  9991
2 41434  57.7299  55.4709 0043352 210.6069  32.7871  1.00291016 20299
BEIDOU-2 G7 (C03)       
1 41586U 16037A   21280.89297089 -.00000353  00000-0  00000+0 0  9997
2 41586   1.9387  69.2158 0007542  12.6660   6.7850  1.00264950 19603
BEIDOU-3 M1 (C19)       
1 43001U 17069A   21280.67457919  .00000064  00000-0  00000+0 0  9991
2 43001  55.4137 120.1660 0007793 294.5678  36.4871  1.86231791 26687
BEIDOU-3 M2 (C20)       
1 43002U 17069B   21280.31742443  .00000067  00000-0  00000-0 0  9996
2 43002  55.4128 120.2138 0006541 323.8326 171.0752  1.86231444 26673
BEIDOU-3 M3 (C27)       
1 43107U 18003A   21280.79289966 -.00000080  00000-0  00000+0 0  9994
2 43107  55.3702   1.2969 0003773  63.7639 195.8563  1.86232594 25442
BEIDOU-3 M4 (C28)       
1 43108U 18003B   21280.43006583 -.00000079  00000-0  00000+0 0  9996
2 43108  55.3644   1.2982 0003810 230.3937 191.1468  1.86232641 25444
BEIDOU-3 M5 (C21)       
1 43207U 18018A   21280.24860887  .00000068  00000-0  00000+0 0  9993
2 43207  55.3698 120.3056 0004958   1.2739 358.8151  1.86231397 24826
BEIDOU-3 M6 (C22)       
1 43208U 18018B   21279.77838867  .00000072  00000-0  00000+0 0  9998
2 43208  55.3714 120.3246 0005757 311.5841  48.4576  1.86231767 24819
BEIDOU-3 M7 (C29)       
1 43245U 18029A   21280.45345998 -.00000078  00000-0  00000-0 0  9994
2 43245  55.2960 359.0935 0001051 186.7587 115.5536  1.86232782 23976
BEIDOU-3 M8 (C30)       
1 43246U 18029B   21280.86649402 -.00000079  00000-0  10000-3 0  9992
2 43246  55.2933 359.1097 0002938 342.6782 282.8593  1.86233218 23978
BEIDOU IGSO-7 (C16)     
1 43539U 18057A   21279.96088294 -.00000123  00000-0  00000-0 0  9999
2 43539  55.0618 177.9595 0041002 223.8783  72.3537  1.00287951 11961
BEIDOU-3 M9 (C23)       
1 43581U 18062A   21280.46232763  .00000019  00000-0  00000-0 0  9994
2 43581  54.3625 240.7537 0005912 276.7865 288.0932  1.86231937 21717
BEIDOU-3 M10 (C24)      
1 43582U 18062B   21280.82202110  .00000021  00000-0  00000+0 0  9990
2 43582  54.3618 240.7308 0005647 334.5136 202.9898  1.86232340 21721
BEIDOU-3 M11 (C25)      
1 43602U 18067A   21280.87534039  .00000022  00000-0  00000+0 0  9992
2 43602  54.4394 239.3212 0007055 352.7301 262.5061  1.86231603 21214
BEIDOU-3 M12 (C26)      
1 43603U 18067B   21280.39029924  .00000019  00000-0  00000-0 0  9999
2 43603  54.4367 239.3054 0004597 337.2595 223.2167  1.86231621 21222
BEIDOU-3 M13 (C32)      
1 43622U 18072A   21280.58103497  .00000064  00000-0  00000+0 0  9994
2 43622  55.3380 119.8561 0004307 290.2498  68.0896  1.86231898 20737
BEIDOU-3 M14 (C33)      
1 43623U 18072B   21280.50417243  .00000065  00000-0  00000-0 0  9996
2 43623  55.3402 119.8504 0003243 335.5849  61.4535  1.86231868 20746
BEIDOU-3 M15 (C34)      
1 43647U 18078A   21280.14103588 -.00000078  00000-0  10000-3 0  9991
2 43647  55.1904 359.2852 0005188 354.4892  54.3154  1.86233039 20246
BEIDOU-3 M16 (C35)      
1 43648U 18078B   21280.36283304 -.00000078  00000-0  00000-0 0  9997
2 43648  55.1863 359.2828 0003115  12.1144  93.6520  1.86232401 20267
BEIDOU-3 G1 (C59)       
1 43683U 18085A   21280.56368939 -.00000281  00000-0  00000-0 0  9990
2 43683   0.9110 211.8832 0004742  30.1801 117.2623  1.00266840 10877
BEIDOU-3 M17 (C36)      
1 43706U 18093A   21280.35800292  .00000019  00000-0  00000+0 0  9992
2 43706  54.4435 240.6245 0011143 275.5534  84.2856  1.86231629 19608
BEIDOU-3 M18 (C37)      
1 43707U 18093B   21280.59866839  .00000020  00000-0  00000+0 0  9990
2 43707  54.4436 240.6061 0009961 294.0308 318.1294  1.86232212 19611
BEIDOU-3 IGSO-1 (C38)   
1 44204U 19023A   21280.76890288 -.00000207  00000-0  00000+0 0  9999
2 44204  56.1886  55.6992 0022796 185.5636 170.6043  1.00287643  9175
BEIDOU-2 G8             
1 44231U 19027A   21280.63768407 -.00000249  00000-0  00000-0 0  9993
2 44231   0.3205  40.4273 0007298 164.2867 185.8474  1.00268157  8898
BEIDOU-3 IGSO-2 (C39)   
1 44337U 19035A   21280.72775832 -.00000118  00000-0  00000+0 0  9993
2 44337  55.0965 173.9851 0020185 181.5608  42.5768  1.00278365  8510
BEIDOU-3 M23 (C45)      
1 44542U 19061A   21280.29777398  .00000019  00000-0  10000-3 0  9995
2 44542  54.6686 240.7181 0009264 320.9929  42.1045  1.86231567 13878
BEIDOU-3 M24 (C46)      
1 44543U 19061B   21280.80570684  .00000022  00000-0  10000-3 0  9996
2 44543  54.6666 240.6705 0006874 309.0306 305.6118  1.86231948 13870
BEIDOU-3 IGSO-3         
1 44709U 19073A   21280.44077216 -.00000158  00000-0  00000+0 0  9992
2 44709  57.6665 299.0056 0020360 185.7383 170.0043  1.00283399  7263
BEIDOU-3 M21            
1 44793U 19078A   21280.25245549 -.00000074  00000-0  19281+2 0  9995
2 44793  55.0395 359.3338 0004986   3.3553  74.4419  1.86232678 12731
BEIDOU-3 M22            
1 44794U 19078B   21280.46515796 -.00000079  00000-0  00000+0 0  9995
2 44794  55.0135 359.3231 0003003 354.4311 137.1596  1.86233038 12731
BEIDOU-3 M19            
1 44864U 19090A   21280.51106927  .00000065  00000-0  00000+0 0  9999
2 44864  55.2728 120.0832 0014437 266.0929  90.8691  1.86231971 12314
BEIDOU-3 M20            
1 44865U 19090B   21280.87564017  .00000061  00000-0  00000+0 0  9993
2 44865  55.2762 120.1016 0012832 282.9918  48.3038  1.86231955 12292
BEIDOU-3 G2             
1 45344U 20017A   21280.61731772 -.00000145  00000-0  00000+0 0  9997
2 45344   2.2972 340.7599 0003053 173.9472 164.0606  1.00271635  6087
BEIDOU-3 G3             
1 45807U 20040A   21280.88706088 -.00000357  00000-0  00000+0 0  9993
2 45807   2.0290 299.1290 0010638 337.5935 169.9018  1.00268318  4900
